NORAD_CAT_ID,OBJECT_NAME,OBJECT_TYPE,EPOCH,MEAN_MOTION,ECCENTRICITY,INCLINATION,RA_OF_ASC_NODE,ARG_OF_PERICENTER,MEAN_ANOMALY,BSTAR,MEAN_MOTION_DOT,MEAN_MOTION_DDOT,TLE_LINE0,TLE_LINE1,TLE_LINE2,SEMIMAJOR_AXIS,PERIOD,APOGEE,PERIGEE,DECAYED
51747.0,STARLINK-3446,PAYLOAD,2023-11-30 15:20:29,15.08847912,0.0001935,53.2193,85.4142,59.7869,300.3315,0.00031145,4.673e-05,0.0,0 STARLINK-3446,1 51747U 22016AK  23334.63923353  .00004673  00000-0  31145-3 0  9991,2 51747  53.2193  85.4142 0001935  59.7869 300.3315 15.08847912 99384,6917.856,95.437,541.06,538.383,0.0
51747.0,STARLINK-3446,PAYLOAD,2023-12-01 12:00:30,15.08843592,0.000163,53.2191,81.5516,66.7989,293.3175,0.00020007,2.898e-05,0.0,0 STARLINK-3446,1 51747U 22016AK  23335.50035701  .00002898  00000-0  20007-3 0  9991,2 51747  53.2191  81.5516 0001630  66.7989 293.3175 15.08843592 99517,6917.869,95.437,540.862,538.607,0.0
51747.0,STARLINK-3446,PAYLOAD,2023-12-01 13:35:53,15.0884617,0.0001883,53.2194,81.2534,70.6199,289.4997,0.00023547,3.462e-05,0.0,0 STARLINK-3446,1 51747U 22016AK  23335.56659610  .00003462  00000-0  23547-3 0  9998,2 51747  53.2194  81.2534 0001883  70.6199 289.4997 15.08846170 98392,6917.862,95.437,541.029,538.424,0.0
51747.0,STARLINK-3446,PAYLOAD,2023-12-02 13:26:40,15.08850629,0.0001676,53.2186,76.7924,96.0115,264.1069,0.00014432,2.01e-05,0.0,0 STARLINK-3446,1 51747U 22016AK  23336.56018894  .00002010  00000-0  14432-3 0  9993,2 51747  53.2186  76.7924 0001676  96.0115 264.1069 15.08850629 98546,6917.848,95.437,540.872,538.553,0.0
51747.0,STARLINK-3446,PAYLOAD,2023-12-03 11:42:05,15.08820001,0.0001727,53.2177,72.6185,133.1487,226.965,-0.00029099,-4.914e-05,0.0,0 STARLINK-3446,1 51747U 22016AK  23337.48756797 -.00004914  00000-0 -29099-3 0  9998,2 51747  53.2177  72.6185 0001727 133.1487 226.9650 15.08820001 99816,6917.942,95.439,541.001,538.612,0.0
51747.0,STARLINK-3446,PAYLOAD,2023-12-04 11:32:52,15.08851535,0.0001425,53.218,68.1669,90.7037,269.4119,0.00029008,4.333e-05,0.0,0 STARLINK-3446,1 51747U 22016AK  23338.48116275  .00004333  00000-0  29008-3 0  9993,2 51747  53.2180  68.1669 0001425  90.7037 269.4119 15.08851535 99965,6917.845,95.437,540.696,538.724,0.0
51747.0,STARLINK-3446,PAYLOAD,2023-12-04 13:08:14,15.08856804,0.0001419,53.2186,67.8687,91.5844,268.531,0.00018639,2.681e-05,0.0,0 STARLINK-3446,1 51747U 22016AK  23338.54739363  .00002681  00000-0  18639-3 0  9991,2 51747  53.2186  67.8687 0001419  91.5844 268.5310 15.08856804 98848,6917.829,95.436,540.676,538.712,0.0
51747.0,STARLINK-3446,PAYLOAD,2023-12-05 11:23:40,15.08833098,0.0001508,53.219,63.7054,94.1151,266.0013,0.00034809,5.255e-05,0.0,0 STARLINK-3446,1 51747U 22016AK  23339.47476859  .00005255  00000-0  34809-3 0  9999,2 51747  53.2190  63.7054 0001508  94.1151 266.0013 15.08833098100112,6917.901,95.438,540.81,538.723,0.0
51747.0,STARLINK-3446,PAYLOAD,2023-12-06 11:14:26,15.08852669,0.0001648,53.2189,59.2462,114.0769,246.0395,-4.1337e-05,-9.46e-06,0.0,0 STARLINK-3446,1 51747U 22016AK  23340.46836087 -.00000946  00000-0 -41337-4 0  9992,2 51747  53.2189  59.2462 0001648 114.0769 246.0395 15.08852669100267,6917.842,95.437,540.847,538.567,0.0
51747.0,STARLINK-3446,PAYLOAD,2023-12-06 12:49:49,15.08858923,0.000169,53.2191,58.9494,69.3289,290.7884,1.8117e-05,0.0,0.0,0 STARLINK-3446,1 51747U 22016AK  23340.53459696  .00000000  00000-0  18117-4 0  9996,2 51747  53.2191  58.9494 0001690  69.3289 290.7884 15.08858923 99149,6917.823,95.436,540.857,538.518,0.0
51747.0,STARLINK-3446,PAYLOAD,2023-12-07 11:05:13,15.08841581,0.0001485,53.2194,54.7866,78.6307,281.4851,-1.8729e-05,-5.86e-06,0.0,0 STARLINK-3446,1 51747U 22016AK  23341.46196580 -.00000586  00000-0 -18729-4 0  9999,2 51747  53.2194  54.7866 0001485  78.6307 281.4851 15.08841581100411,6917.876,95.437,540.768,538.713,0.0
51747.0,STARLINK-3446,PAYLOAD,2023-12-07 14:15:59,15.08847053,0.0001316,53.2192,54.1904,92.7689,267.3453,2.1709e-05,5.8e-07,0.0,0 STARLINK-3446,1 51747U 22016AK  23341.59444010  .00000058  00000-0  21709-4 0  9991,2 51747  53.2192  54.1904 0001316  92.7689 267.3453 15.08847053 99305,6917.859,95.437,540.634,538.813,0.0
51747.0,STARLINK-3446,PAYLOAD,2023-12-08 10:56:00,15.08840003,0.0001547,53.2193,50.3237,98.5643,261.5525,3.6392e-05,2.91e-06,0.0,0 STARLINK-3446,1 51747U 22016AK  23342.45556413  .00000291  00000-0  36392-4 0  9991,2 51747  53.2193  50.3237 0001547  98.5643 261.5525 15.08840003100568,6917.88,95.438,540.816,538.675,0.0
51747.0,STARLINK-3446,PAYLOAD,2023-12-08 14:06:47,15.08835943,0.0001788,53.2203,49.725,64.3069,295.8108,0.00014594,2.035e-05,0.0,0 STARLINK-3446,1 51747U 22016AK  23342.58804477  .00002035  00000-0  14594-3 0  9998,2 51747  53.2203  49.7250 0001788  64.3069 295.8108 15.08835943 99456,6917.893,95.438,540.995,538.521,0.0
51747.0,STARLINK-3446,PAYLOAD,2023-12-09 13:57:34,15.08840808,0.0001714,53.2199,45.2645,70.7773,289.3405,4.929e-05,4.96e-06,0.0,0 STARLINK-3446,1 51747U 22016AK  23343.58164385  .00000496  00000-0  49290-4 0  9997,2 51747  53.2199  45.2645 0001714  70.7773 289.3405 15.08840808 99602,6917.878,95.438,540.929,538.557,0.0
51747.0,STARLINK-3446,PAYLOAD,2023-12-10 13:48:21,15.08841731,0.0001823,53.2201,40.8054,67.7461,292.3725,2.5029e-05,1.1e-06,0.0,0 STARLINK-3446,1 51747U 22016AK  23344.57524412  .00000110  00000-0  25029-4 0  9995,2 51747  53.2201  40.8054 0001823  67.7461 292.3725 15.08841731 99753,6917.875,95.437,541.001,538.479,0.0
51747.0,STARLINK-3446,PAYLOAD,2023-12-11 10:28:21,15.08840749,0.0001424,53.2183,36.9396,101.5964,258.5188,3.3591e-05,2.47e-06,0.0,0 STARLINK-3446,1 51747U 22016AK  23345.43636119  .00000247  00000-0  33591-4 0  9993,2 51747  53.2183  36.9396 0001424 101.5964 258.5188 15.08840749101017,6917.878,95.438,540.728,538.758,0.0
51747.0,STARLINK-3446,PAYLOAD,2023-12-12 10:19:09,15.08834288,0.0001477,53.2179,32.4834,95.3925,264.7235,2.3891e-05,9.2e-07,0.0,0 STARLINK-3446,1 51747U 22016AK  23346.42996754  .00000092  00000-0  23891-4 0  9997,2 51747  53.2179  32.4834 0001477  95.3925 264.7235 15.08834288101164,6917.898,95.438,540.785,538.741,0.0
51747.0,STARLINK-3446,PAYLOAD,2023-12-13 10:09:55,15.08842311,0.0001471,53.2179,28.0232,95.144,264.972,8.307e-05,1.034e-05,0.0,0 STARLINK-3446,1 51747U 22016AK  23347.42356188  .00001034  00000-0  83070-4 0  9991,2 51747  53.2179  28.0232 0001471  95.1440 264.9720 15.08842311101315,6917.873,95.437,540.756,538.721,0.0
51747.0,STARLINK-3446,PAYLOAD,2023-12-14 10:00:43,15.08840144,0.0001508,53.2182,23.5616,88.5929,271.5236,6.5342e-05,7.52e-06,0.0,0 STARLINK-3446,1 51747U 22016AK  23348.41716553  .00000752  00000-0  65342-4 0  9995,2 51747  53.2182  23.5616 0001508  88.5929 271.5236 15.08840144101468,6917.88,95.438,540.788,538.702,0.0
51747.0,STARLINK-3446,PAYLOAD,2023-12-15 08:16:07,15.08822843,0.0001742,53.2188,19.398,75.2368,284.8818,0.0001685,2.393e-05,0.0,0 STARLINK-3446,1 51747U 22016AK  23349.34453437  .00002393  00000-0  16850-3 0  9999,2 51747  53.2188  19.3980 0001742  75.2368 284.8818 15.08822843101606,6917.933,95.439,541.003,538.593,0.0
51747.0,STARLINK-3446,PAYLOAD,2023-12-16 08:06:54,15.08839057,0.0001881,53.2184,14.9405,66.3899,293.7291,4.6e-05,4.44e-06,0.0,0 STARLINK-3446,1 51747U 22016AK  23350.33813243  .00000444  00000-0  46000-4 0  9991,2 51747  53.2184  14.9405 0001881  66.3899 293.7291 15.08839057101754,6917.883,95.438,541.05,538.447,0.0
51747.0,STARLINK-3446,PAYLOAD,2023-12-17 07:57:41,15.08837241,0.0001926,53.218,10.4784,63.6946,296.4243,6.0917e-05,6.81e-06,0.0,0 STARLINK-3446,1 51747U 22016AK  23351.33173534  .00000681  00000-0  60917-4 0  9990,2 51747  53.2180  10.4784 0001926  63.6946 296.4243 15.08837241100775,6917.889,95.438,541.086,538.421,0.0
51747.0,STARLINK-3446,PAYLOAD,2023-12-17 23:51:32,15.0884411,0.0001666,53.2171,7.5193,103.2631,256.8547,0.00010783,1.429e-05,0.0,0 STARLINK-3446,1 51747U 22016AK  23351.99412883  .00001429  00000-0  10783-3 0  9991,2 51747  53.2171   7.5193 0001666 103.2631 256.8547 15.08844110102007,6917.868,95.437,540.885,538.58,0.0
51747.0,STARLINK-3446,PAYLOAD,2023-12-18 07:48:27,15.0885271,0.0001619,53.2175,6.0188,97.5699,262.5477,0.00016366,2.318e-05,0.0,0 STARLINK-3446,1 51747U 22016AK  23352.32531977  .00002318  00000-0  16366-3 0  9996,2 51747  53.2175   6.0188 0001619  97.5699 262.5477 15.08852710102052,6917.842,95.437,540.827,538.587,0.0
51747.0,STARLINK-3446,PAYLOAD,2023-12-19 04:28:29,15.08834965,0.0001524,53.2176,2.1565,109.9236,250.192,-3.6032e-06,-3.45e-06,0.0,0 STARLINK-3446,1 51747U 22016AK  23353.18645711 -.00000345  00000-0 -36032-5 0  9997,2 51747  53.2176   2.1565 0001524 109.9236 250.1920 15.08834965102181,6917.896,95.438,540.815,538.706,0.0
51747.0,STARLINK-3446,PAYLOAD,2023-12-19 06:03:52,15.0883706,0.0001663,53.2177,1.8597,113.6209,246.4958,1.7228e-05,-1.4e-07,0.0,0 STARLINK-3446,1 51747U 22016AK  23353.25269579 -.00000014  00000-0  17228-4 0  9996,2 51747  53.2177   1.8597 0001663 113.6209 246.4958 15.08837060101063,6917.889,95.438,540.905,538.604,0.0
51747.0,STARLINK-3446,PAYLOAD,2023-12-20 07:30:03,15.08841632,0.0001479,53.2172,357.0947,101.223,258.8929,-3.1129e-06,-3.38e-06,0.0,0 STARLINK-3446,1 51747U 22016AK  23354.31253595 -.00000338  00000-0 -31129-5 0  9992,2 51747  53.2172 357.0947 0001479 101.2230 258.8929 15.08841632102353,6917.875,95.437,540.764,538.717,0.0
51747.0,STARLINK-3446,PAYLOAD,2023-12-21 07:20:49,15.08849927,0.0001457,53.2165,352.6408,98.2923,261.8234,0.00031806,4.779e-05,0.0,0 STARLINK-3446,1 51747U 22016AK  23355.30613287  .00004779  00000-0  31806-3 0  9991,2 51747  53.2165 352.6408 0001457  98.2923 261.8234 15.08849927101377,6917.85,95.437,540.723,538.707,0.0
51747.0,STARLINK-3446,PAYLOAD,2023-12-22 04:00:51,15.08839198,0.0001636,53.2166,348.7718,73.1631,286.954,8.6571e-05,1.09e-05,0.0,0 STARLINK-3446,1 51747U 22016AK  23356.16726034  .00001090  00000-0  86571-4 0  9994,2 51747  53.2166 348.7718 0001636  73.1631 286.9540 15.08839198102632,6917.883,95.438,540.88,538.616,0.0
